[
  {
    "name": "KUIPER-00230",
    "noradId": "68579",
    "line1": "1 68579U 26072G   26199.76168842  .00007774  00000+0  21053-3 0  9999",
    "line2": "2 68579  51.8775  23.8258 0002751 124.4538 235.6709 15.38637496 16247"
  },
  {
    "name": "KUIPER-00231",
    "noradId": "68580",
    "line1": "1 68580U 26072H   26199.91668981 -.00012155  00000+0 -13339-2 0  9995",
    "line2": "2 68580  51.9002  27.7640 0003130  39.2290 182.3199 14.86579522  4561"
  },
  {
    "name": "KUIPER-00234",
    "noradId": "68581",
    "line1": "1 68581U 26072J   26199.91668981  .00000325  00000+0  71718-4 0  9997",
    "line2": "2 68581  51.8996  50.3313 0000146 125.7970 314.8359 14.79887310  4257"
  },
  {
    "name": "KUIPER-00236",
    "noradId": "68582",
    "line1": "1 68582U 26072K   26199.78434575 -.00004553  00000+0 -10892-3 0  9997",
    "line2": "2 68582  51.8779  23.9770 0003371 130.6682 229.4598 15.38174819 16245"
  },
  {
    "name": "KUIPER-00244",
    "noradId": "68583",
    "line1": "1 68583U 26072L   26199.87864216  .00001499  00000+0  22563-3 0  9999",
    "line2": "2 68583  51.9015  40.5211 0001446 129.9404 230.1686 14.79936920 16025"
  },
  {
    "name": "KUIPER-00253",
    "noradId": "68584",
    "line1": "1 68584U 26072M   26199.87595101  .00000494  00000+0  93753-4 0  9998",
    "line2": "2 68584  51.9047  43.0388 0000751 116.4538 243.6502 14.79929059 15986"
  },
  {
    "name": "KUIPER-00254",
    "noradId": "68585",
    "line1": "1 68585U 26072N   26199.83948835  .00001557  00000+0  23320-3 0  9994",
    "line2": "2 68585  51.9046  45.6983 0001845 122.2390 237.8752 14.79929908 15942"
  },
  {
    "name": "KUIPER-00263",
    "noradId": "68586",
    "line1": "1 68586U 26072P   26199.91668981 -.00006147  00000+0 -77729-3 0  9999",
    "line2": "2 68586  51.9020  30.4349 0001186  64.4709 260.7995 14.79969405  5626"
  },
  {
    "name": "KUIPER-00269",
    "noradId": "68587",
    "line1": "1 68587U 26072Q   26199.85299990  .00001439  00000+0  21762-3 0  9996",
    "line2": "2 68587  51.9011  33.1314 0000423  78.9160 281.1850 14.79953774 16129"
  },
  {
    "name": "KUIPER-00272",
    "noradId": "68588",
    "line1": "1 68588U 26072R   26199.86516345  .00001515  00000+0  22772-3 0  9991",
    "line2": "2 68588  51.8997  53.0556 0000835 120.9285 239.1760 14.79932452 15845"
  },
  {
    "name": "KUIPER-00285",
    "noradId": "68589",
    "line1": "1 68589U 26072S   26199.75173286  .00001295  00000+0  19874-3 0  9997",
    "line2": "2 68589  51.9050  33.6361 0001896 151.2885 208.8183 14.79955182 16103"
  },
  {
    "name": "KUIPER-00286",
    "noradId": "68590",
    "line1": "1 68590U 26072T   26199.91668981  .00025897  00000+0  37141-2 0  9998",
    "line2": "2 68590  51.9019  30.0097 0002304 150.1849 173.6571 14.76339683  5343"
  },
  {
    "name": "KUIPER-00289",
    "noradId": "68591",
    "line1": "1 68591U 26072U   26199.81381158  .00001372  00000+0  20891-3 0  9993",
    "line2": "2 68591  51.9001  38.3003 0000733 128.8693 231.2335 14.79930659 16047"
  },
  {
    "name": "KUIPER-00290",
    "noradId": "68592",
    "line1": "1 68592U 26072V   26199.84557761  .00000886  00000+0  15698-3 0  9990",
    "line2": "2 68592  51.9035  36.7372 0001125 127.0280 233.0784 14.76398906 16076"
  },
  {
    "name": "KUIPER-00293",
    "noradId": "68593",
    "line1": "1 68593U 26072W   26199.87054798  .00001438  00000+0  21763-3 0  9990",
    "line2": "2 68593  51.8989  48.0333 0002769 139.8398 220.2770 14.79933936 15919"
  },
  {
    "name": "KUIPER-00294",
    "noradId": "68594",
    "line1": "1 68594U 26072X   26199.91668981  .00020726  00000+0  27406-2 0  9991",
    "line2": "2 68594  51.8996  35.3442 0001905  53.7919 120.5419 14.79913385  4873"
  },
  {
    "name": "KUIPER-00296",
    "noradId": "68595",
    "line1": "1 68595U 26072Y   26199.86060045 -.00252976  00000+0 -75332-2 0  9990",
    "line2": "2 68595  51.8720  23.6766 0008615 129.1827 230.9925 15.35124265 16256"
  },
  {
    "name": "KUIPER-00297",
    "noradId": "68596",
    "line1": "1 68596U 26072Z   26199.89125909  .00000838  00000+0  15015-3 0  9994",
    "line2": "2 68596  51.9008  47.7965 0001159 144.2074 215.8965 14.76359266 15927"
  },
  {
    "name": "KUIPER-00300",
    "noradId": "68597",
    "line1": "1 68597U 26072AA  26199.88283561  .00000979  00000+0  16989-3 0  9990",
    "line2": "2 68597  51.9039  44.8910 0001959 145.5637 214.5451 14.76475859 15964"
  },
  {
    "name": "KUIPER-00301",
    "noradId": "68598",
    "line1": "1 68598U 26072AB  26199.72235268  .00016151  00000+0  42304-3 0  9994",
    "line2": "2 68598  51.8660  24.2015 0009314 136.9398 223.2320 15.38812813 16230"
  },
  {
    "name": "KUIPER-00304",
    "noradId": "68599",
    "line1": "1 68599U 26072AC  26199.91668981 -.01944659  00000+0 -62943-1 0  9993",
    "line2": "2 68599  51.8691  23.4677 0011774 135.7692 123.9518 15.34988681  2667"
  },
  {
    "name": "KUIPER-00317",
    "noradId": "68600",
    "line1": "1 68600U 26072AD  26199.85026777  .00001506  00000+0  22657-3 0  9992",
    "line2": "2 68600  51.8995  35.6487 0000694  93.1447 266.9595 14.79922676 16089"
  },
  {
    "name": "KUIPER-00320",
    "noradId": "68601",
    "line1": "1 68601U 26072AE  26199.77734024  .00001513  00000+0  22737-3 0  9992",
    "line2": "2 68601  51.9038  40.9631 0000772 115.4163 244.6880 14.79935316 16006"
  },
  {
    "name": "KUIPER-00299",
    "noradId": "68864",
    "line1": "1 68864U 26095A   26199.74204909  .00000879  00000+0  15566-3 0  9995",
    "line2": "2 68864  51.9003 109.7745 0001355 287.3332  72.7481 14.76474201 12308"
  },
  {
    "name": "KUIPER-00353",
    "noradId": "68865",
    "line1": "1 68865U 26095B   26199.91668981 -.00018189  00000+0 -23648-2 0  9993",
    "line2": "2 68865  51.8993  95.3528 0001668 111.4195 227.3850 14.79905256  5904"
  },
  {
    "name": "KUIPER-00357",
    "noradId": "68866",
    "line1": "1 68866U 26095C   26199.74369773  .00001357  00000+0  20689-3 0  9992",
    "line2": "2 68866  51.9021 103.6182 0001229  97.9690 262.1412 14.79941480 12399"
  },
  {
    "name": "KUIPER-00364",
    "noradId": "68867",
    "line1": "1 68867U 26095D   26199.90987005  .00001508  00000+0  22678-3 0  9993",
    "line2": "2 68867  51.9046 105.3924 0001258 161.0373 199.0636 14.79923770 12380"
  },
  {
    "name": "KUIPER-00375",
    "noradId": "68868",
    "line1": "1 68868U 26095E   26199.91668981 -.00029264  00000+0 -41589-2 0  9996",
    "line2": "2 68868  51.9001  97.2908 0003415 106.5911 357.9758 14.76410746  5790"
  },
  {
    "name": "KUIPER-00433",
    "noradId": "68869",
    "line1": "1 68869U 26095F   26199.05788038  .00001667  00000+0  24747-3 0  9991",
    "line2": "2 68869  51.9009 116.6488 0001179  88.0505 272.0592 14.79968474 12156"
  },
  {
    "name": "KUIPER-00437",
    "noradId": "68870",
    "line1": "1 68870U 26095G   26199.92539029  .00008114  00000+0  21939-3 0  9997",
    "line2": "2 68870  51.8783  88.7893 0007996  63.9140 296.2669 15.38608170 12619"
  },
  {
    "name": "KUIPER-00448",
    "noradId": "68871",
    "line1": "1 68871U 26095H   26199.88972071  .00000802  00000+0  14487-3 0  9997",
    "line2": "2 68871  51.9045 101.3311 0001365 174.6864 185.4112 14.76432201 12439"
  },
  {
    "name": "KUIPER-00459",
    "noradId": "68872",
    "line1": "1 68872U 26095J   26199.91668981 -.01017819  00000+0 -75336-1 0  9991",
    "line2": "2 68872  51.8920  91.4994 0008942  55.7782 287.4392 15.05434482  3915"
  },
  {
    "name": "KUIPER-00468",
    "noradId": "68873",
    "line1": "1 68873U 26095K   26199.91668981 -.01754772  00000+0 -10543+0 0  9995",
    "line2": "2 68873  51.8885  90.0760 0003634  30.4485  60.8125 15.13684829  3193"
  },
  {
    "name": "KUIPER-00476",
    "noradId": "68874",
    "line1": "1 68874U 26095L   26199.97798907  .00010531  00000+0  33442-3 0  9996",
    "line2": "2 68874  51.8715  89.8177 0010046  60.7705 299.4283 15.33168459 12609"
  },
  {
    "name": "KUIPER-00478",
    "noradId": "68875",
    "line1": "1 68875U 26095M   26199.91668981 -.00069129  00000+0 -75643-2 0  9996",
    "line2": "2 68875  51.8957  92.8659 0006360  70.2287  64.2316 14.87675370  5376"
  },
  {
    "name": "KUIPER-00480",
    "noradId": "68876",
    "line1": "1 68876U 26095N   26199.91668981 -.00102599  00000+0 -76050-2 0  9999",
    "line2": "2 68876  51.8862  90.8375 0005146  48.5983   1.0054 15.03108199  3305"
  },
  {
    "name": "KUIPER-00482",
    "noradId": "68877",
    "line1": "1 68877U 26095P   26199.90015432  .00000766  00000+0  13969-3 0  9998",
    "line2": "2 68877  51.9021 100.2665 0000740 254.4402 105.6477 14.76418582 12456"
  },
  {
    "name": "KUIPER-00483",
    "noradId": "68878",
    "line1": "1 68878U 26095Q   26199.14425006  .00000991  00000+0  17138-3 0  9999",
    "line2": "2 68878  51.8986 116.0907 0001253 259.5206 100.5614 14.76520528 12167"
  },
  {
    "name": "KUIPER-00488",
    "noradId": "68879",
    "line1": "1 68879U 26095R   26199.91668981 -.00082571  00000+0 -10599-1 0  9994",
    "line2": "2 68879  51.8992  95.3724 0003477 113.1277  42.0749 14.81233155  5797"
  },
  {
    "name": "KUIPER-00489",
    "noradId": "68880",
    "line1": "1 68880U 26095S   26199.91668981 -.02059672  00000+0 -92331-1 0  9998",
    "line2": "2 68880  51.8779  90.4450 0013173  62.4409 163.5046 15.24134138  4608"
  },
  {
    "name": "KUIPER-00499",
    "noradId": "68881",
    "line1": "1 68881U 26095T   26199.91668981 -.00065424  00000+0 -60945-2 0  9996",
    "line2": "2 68881  51.8945  93.3844 0007450  66.5070  38.6473 14.94058604  3461"
  },
  {
    "name": "KUIPER-00500",
    "noradId": "68882",
    "line1": "1 68882U 26095U   26199.90443756  .00001584  00000+0  23681-3 0  9999",
    "line2": "2 68882  51.9013 110.4029 0001383  50.6540 309.4545 14.79933580 12311"
  },
  {
    "name": "KUIPER-00502",
    "noradId": "68883",
    "line1": "1 68883U 26095V   26199.91668981 -.01203412  00000+0 -60680-1 0  9995",
    "line2": "2 68883  51.8871  89.3930 0005938  50.5844 334.2232 15.19592472  2688"
  }
]